[Satellite]
VERSION=1.1
NAME=COSMOS 1812
NICKNAME=COSMOS 1812
TLE1=1 17295U 87003A   20158.06971700  .00000779  00000-0  39491-4 0  9991
TLE2=2 17295  82.5130 156.7570 0003034   3.9504 356.1752 15.15538517823224
STATUS=0
